[{"OBJECT_NAME":"STARLINK-34632","OBJECT_ID":"2025-150C","EPOCH":"2026-03-09T14:41:27.561984","MEAN_MOTION":14.98333403,"ECCENTRICITY":0.0003624,"INCLINATION":70.0018,"RA_OF_ASC_NODE":134.5967,"ARG_OF_PERICENTER":272.7438,"MEAN_ANOMALY":87.3306,"EPHEMERIS_TYPE":0,"CLASSIFICATION_TYPE":"U","NORAD_CAT_ID":64792,"ELEMENT_SET_NO":999,"REV_AT_EPOCH":3650,"BSTAR":0.00028859,"MEAN_MOTION_DOT":3.352e-5,"MEAN_MOTION_DDOT":0},{"OBJECT_NAME":"ION SCV-022","OBJECT_ID":"2025-276S","EPOCH":"2026-03-09T17:53:05.489952","MEAN_MOTION":14.97347265,"ECCENTRICITY":0.00045393,"INCLINATION":97.5376,"RA_OF_ASC_NODE":142.978,"ARG_OF_PERICENTER":154.7099,"MEAN_ANOMALY":205.4346,"EPHEMERIS_TYPE":0,"CLASSIFICATION_TYPE":"U","NORAD_CAT_ID":66682,"ELEMENT_SET_NO":999,"REV_AT_EPOCH":1519,"BSTAR":0.00017276803,"MEAN_MOTION_DOT":1.95e-5,"MEAN_MOTION_DDOT":0}]
